[{"OBJECT_NAME":"OBJECT K","OBJECT_ID":"2024-092K","EPOCH":"2026-03-09T22:27:09.905184","MEAN_MOTION":15.32834875,"ECCENTRICITY":0.00087198,"INCLINATION":97.6413,"RA_OF_ASC_NODE":198.1023,"ARG_OF_PERICENTER":142.4952,"MEAN_ANOMALY":217.69,"EPHEMERIS_TYPE":0,"CLASSIFICATION_TYPE":"U","NORAD_CAT_ID":59809,"ELEMENT_SET_NO":999,"REV_AT_EPOCH":10001,"BSTAR":0.0007267688,"MEAN_MOTION_DOT":0.00023035,"MEAN_MOTION_DDOT":0},{"OBJECT_NAME":"STARLINK-31239","OBJECT_ID":"2024-117C","EPOCH":"2026-03-09T07:18:34.610400","MEAN_MOTION":15.30188017,"ECCENTRICITY":0.00014284,"INCLINATION":53.1627,"RA_OF_ASC_NODE":39.1898,"ARG_OF_PERICENTER":89.7347,"MEAN_ANOMALY":270.3818,"EPHEMERIS_TYPE":0,"CLASSIFICATION_TYPE":"U","NORAD_CAT_ID":60093,"ELEMENT_SET_NO":999,"REV_AT_EPOCH":9682,"BSTAR":-2.2951996e-5,"MEAN_MOTION_DOT":-1.039e-5,"MEAN_MOTION_DDOT":0}]
